{
"type": "FeatureCollection",
"name": "subway_bronx",
"crs": { "type": "name", "properties": { "name": "urn:ogc:def:crs:OGC:1.3:CRS84" } },
"xy_coordinate_resolution": 1e-15,
"features": [
{"type":"Feature","properties":{"line":"Concourse","stop_name":"Norwood-205 St","daytime_routes":"D","color":"#EB6800"},"geometry":{"type":"Point","coordinates":[-73.878855,40.874811]}},
{"type":"Feature","properties":{"line":"Concourse","stop_name":"Bedford Park Blvd","daytime_routes":"B, D","color":"#EB6800"},"geometry":{"type":"Point","coordinates":[-73.887138,40.873244]}},
{"type":"Feature","properties":{"line":"Concourse","stop_name":"Kingsbridge Rd","daytime_routes":"B, D","color":"#EB6800"},"geometry":{"type":"Point","coordinates":[-73.893509,40.866978]}},
{"type":"Feature","properties":{"line":"Concourse","stop_name":"Fordham Rd","daytime_routes":"B, D","color":"#EB6800"},"geometry":{"type":"Point","coordinates":[-73.897749,40.861296]}},
{"type":"Feature","properties":{"line":"Concourse","stop_name":"182-183 Sts","daytime_routes":"B, D","color":"#EB6800"},"geometry":{"type":"Point","coordinates":[-73.900741,40.856093]}},
{"type":"Feature","properties":{"line":"Concourse","stop_name":"Tremont Av","daytime_routes":"B, D","color":"#EB6800"},"geometry":{"type":"Point","coordinates":[-73.905227,40.85041]}},
{"type":"Feature","properties":{"line":"Concourse","stop_name":"174-175 Sts","daytime_routes":"B, D","color":"#EB6800"},"geometry":{"type":"Point","coordinates":[-73.910136,40.8459]}},
{"type":"Feature","properties":{"line":"Concourse","stop_name":"170 St","daytime_routes":"B, D","color":"#EB6800"},"geometry":{"type":"Point","coordinates":[-73.9134,40.839306]}},
{"type":"Feature","properties":{"line":"Concourse","stop_name":"167 St","daytime_routes":"B, D","color":"#EB6800"},"geometry":{"type":"Point","coordinates":[-73.91844,40.833771]}},
{"type":"Feature","properties":{"line":"Concourse","stop_name":"161 St-Yankee Stadium","daytime_routes":"B, D","color":"#EB6800"},"geometry":{"type":"Point","coordinates":[-73.925651,40.827905]}},
{"type":"Feature","properties":{"line":"Broadway - 7Av","stop_name":"Van Cortlandt Park-242 St","daytime_routes":"1","color":"#D82233","color2":null},"geometry":{"type":"Point","coordinates":[-73.898583,40.889248]}},
{"type":"Feature","properties":{"line":"Broadway - 7Av","stop_name":"238 St","daytime_routes":"1","color":"#D82233","color2":null},"geometry":{"type":"Point","coordinates":[-73.90087,40.884667]}},
{"type":"Feature","properties":{"line":"Broadway - 7Av","stop_name":"231 St","daytime_routes":"1","color":"#D82233","color2":null},"geometry":{"type":"Point","coordinates":[-73.904834,40.878856]}},
{"type":"Feature","properties":{"line":"Pelham","stop_name":"Pelham Bay Park","daytime_routes":"6","color":"#009952"},"geometry":{"type":"Point","coordinates":[-73.828121,40.852462]}},
{"type":"Feature","properties":{"line":"Pelham","stop_name":"Buhre Av","daytime_routes":"6","color":"#009952"},"geometry":{"type":"Point","coordinates":[-73.832569,40.84681]}},
{"type":"Feature","properties":{"line":"Pelham","stop_name":"Middletown Rd","daytime_routes":"6","color":"#009952"},"geometry":{"type":"Point","coordinates":[-73.836322,40.843863]}},
{"type":"Feature","properties":{"line":"Pelham","stop_name":"Westchester Sq-E Tremont Av","daytime_routes":"6","color":"#009952"},"geometry":{"type":"Point","coordinates":[-73.842952,40.839892]}},
{"type":"Feature","properties":{"line":"Pelham","stop_name":"Zerega Av","daytime_routes":"6","color":"#009952"},"geometry":{"type":"Point","coordinates":[-73.847036,40.836488]}},
{"type":"Feature","properties":{"line":"Pelham","stop_name":"Castle Hill Av","daytime_routes":"6","color":"#009952"},"geometry":{"type":"Point","coordinates":[-73.851222,40.834255]}},
{"type":"Feature","properties":{"line":"Pelham","stop_name":"Parkchester","daytime_routes":"6","color":"#009952"},"geometry":{"type":"Point","coordinates":[-73.860816,40.833226]}},
{"type":"Feature","properties":{"line":"Pelham","stop_name":"St Lawrence Av","daytime_routes":"6","color":"#009952"},"geometry":{"type":"Point","coordinates":[-73.867618,40.831509]}},
{"type":"Feature","properties":{"line":"Pelham","stop_name":"Morrison Av-Soundview","daytime_routes":"6","color":"#009952"},"geometry":{"type":"Point","coordinates":[-73.874516,40.829521]}},
{"type":"Feature","properties":{"line":"Pelham","stop_name":"Elder Av","daytime_routes":"6","color":"#009952"},"geometry":{"type":"Point","coordinates":[-73.879159,40.828584]}},
{"type":"Feature","properties":{"line":"Pelham","stop_name":"Whitlock Av","daytime_routes":"6","color":"#009952"},"geometry":{"type":"Point","coordinates":[-73.886283,40.826525]}},
{"type":"Feature","properties":{"line":"Pelham","stop_name":"Hunts Point Av","daytime_routes":"6","color":"#009952"},"geometry":{"type":"Point","coordinates":[-73.890549,40.820948]}},
{"type":"Feature","properties":{"line":"Pelham","stop_name":"Longwood Av","daytime_routes":"6","color":"#009952"},"geometry":{"type":"Point","coordinates":[-73.896435,40.816104]}},
{"type":"Feature","properties":{"line":"Pelham","stop_name":"E 149 St","daytime_routes":"6","color":"#009952"},"geometry":{"type":"Point","coordinates":[-73.904098,40.812118]}},
{"type":"Feature","properties":{"line":"Pelham","stop_name":"E 143 St-St Mary's St","daytime_routes":"6","color":"#009952"},"geometry":{"type":"Point","coordinates":[-73.907657,40.808719]}},
{"type":"Feature","properties":{"line":"Pelham","stop_name":"Cypress Av","daytime_routes":"6","color":"#009952"},"geometry":{"type":"Point","coordinates":[-73.914042,40.805368]}},
{"type":"Feature","properties":{"line":"Pelham","stop_name":"Brook Av","daytime_routes":"6","color":"#009952"},"geometry":{"type":"Point","coordinates":[-73.91924,40.807566]}},
{"type":"Feature","properties":{"line":"Pelham","stop_name":"3 Av-138 St","daytime_routes":"6","color":"#009952"},"geometry":{"type":"Point","coordinates":[-73.926138,40.810476]}},
{"type":"Feature","properties":{"line":"Jerome Av","stop_name":"Woodlawn","daytime_routes":"4","color":"#009952"},"geometry":{"type":"Point","coordinates":[-73.878751,40.886037]}},
{"type":"Feature","properties":{"line":"Jerome Av","stop_name":"Mosholu Pkwy","daytime_routes":"4","color":"#009952"},"geometry":{"type":"Point","coordinates":[-73.884655,40.87975]}},
{"type":"Feature","properties":{"line":"Jerome Av","stop_name":"Bedford Park Blvd-Lehman College","daytime_routes":"4","color":"#009952"},"geometry":{"type":"Point","coordinates":[-73.890064,40.873412]}},
{"type":"Feature","properties":{"line":"Jerome Av","stop_name":"Kingsbridge Rd","daytime_routes":"4","color":"#009952"},"geometry":{"type":"Point","coordinates":[-73.897174,40.86776]}},
{"type":"Feature","properties":{"line":"Jerome Av","stop_name":"Fordham Rd","daytime_routes":"4","color":"#009952"},"geometry":{"type":"Point","coordinates":[-73.901034,40.862803]}},
{"type":"Feature","properties":{"line":"Jerome Av","stop_name":"183 St","daytime_routes":"4","color":"#009952"},"geometry":{"type":"Point","coordinates":[-73.903879,40.858407]}},
{"type":"Feature","properties":{"line":"Jerome Av","stop_name":"Burnside Av","daytime_routes":"4","color":"#009952"},"geometry":{"type":"Point","coordinates":[-73.907684,40.853453]}},
{"type":"Feature","properties":{"line":"Jerome Av","stop_name":"176 St","daytime_routes":"4","color":"#009952"},"geometry":{"type":"Point","coordinates":[-73.911794,40.84848]}},
{"type":"Feature","properties":{"line":"Jerome Av","stop_name":"Mt Eden Av","daytime_routes":"4","color":"#009952"},"geometry":{"type":"Point","coordinates":[-73.914685,40.844434]}},
{"type":"Feature","properties":{"line":"Jerome Av","stop_name":"170 St","daytime_routes":"4","color":"#009952"},"geometry":{"type":"Point","coordinates":[-73.917791,40.840075]}},
{"type":"Feature","properties":{"line":"Jerome Av","stop_name":"167 St","daytime_routes":"4","color":"#009952"},"geometry":{"type":"Point","coordinates":[-73.9214,40.835537]}},
{"type":"Feature","properties":{"line":"Jerome Av","stop_name":"161 St-Yankee Stadium","daytime_routes":"4","color":"#009952"},"geometry":{"type":"Point","coordinates":[-73.925831,40.827994]}},
{"type":"Feature","properties":{"line":"Jerome Av","stop_name":"149 St-Hostos","daytime_routes":"4","color":"#009952"},"geometry":{"type":"Point","coordinates":[-73.927351,40.818375]}},
{"type":"Feature","properties":{"line":"Jerome Av","stop_name":"138 St-Grand Concourse","daytime_routes":"4, 5","color":"#009952"},"geometry":{"type":"Point","coordinates":[-73.929849,40.813224]}},
{"type":"Feature","properties":{"line":"Lenox - White Plains Rd","stop_name":"Wakefield-241 St","daytime_routes":"2","color":"#D82233","color2":null},"geometry":{"type":"Point","coordinates":[-73.85062,40.903125]}},
{"type":"Feature","properties":{"line":"Lenox - White Plains Rd","stop_name":"Nereid Av","daytime_routes":"2, 5","color":"#D82233","color2":"#009952"},"geometry":{"type":"Point","coordinates":[-73.854376,40.898379]}},
{"type":"Feature","properties":{"line":"Lenox - White Plains Rd","stop_name":"233 St","daytime_routes":"2, 5","color":"#D82233","color2":"#009952"},"geometry":{"type":"Point","coordinates":[-73.857473,40.893193]}},
{"type":"Feature","properties":{"line":"Lenox - White Plains Rd","stop_name":"225 St","daytime_routes":"2, 5","color":"#D82233","color2":"#009952"},"geometry":{"type":"Point","coordinates":[-73.860341,40.888022]}},
{"type":"Feature","properties":{"line":"Lenox - White Plains Rd","stop_name":"219 St","daytime_routes":"2, 5","color":"#D82233","color2":"#009952"},"geometry":{"type":"Point","coordinates":[-73.862633,40.883895]}},
{"type":"Feature","properties":{"line":"Lenox - White Plains Rd","stop_name":"Gun Hill Rd","daytime_routes":"2, 5","color":"#D82233","color2":"#009952"},"geometry":{"type":"Point","coordinates":[-73.866256,40.87785]}},
{"type":"Feature","properties":{"line":"Lenox - White Plains Rd","stop_name":"Burke Av","daytime_routes":"2, 5","color":"#D82233","color2":"#009952"},"geometry":{"type":"Point","coordinates":[-73.867164,40.871356]}},
{"type":"Feature","properties":{"line":"Lenox - White Plains Rd","stop_name":"Allerton Av","daytime_routes":"2, 5","color":"#D82233","color2":"#009952"},"geometry":{"type":"Point","coordinates":[-73.867352,40.865462]}},
{"type":"Feature","properties":{"line":"Lenox - White Plains Rd","stop_name":"Pelham Pkwy","daytime_routes":"2, 5","color":"#D82233","color2":"#009952"},"geometry":{"type":"Point","coordinates":[-73.867615,40.857192]}},
{"type":"Feature","properties":{"line":"Lenox - White Plains Rd","stop_name":"Bronx Park East","daytime_routes":"2, 5","color":"#D82233","color2":"#009952"},"geometry":{"type":"Point","coordinates":[-73.868457,40.848828]}},
{"type":"Feature","properties":{"line":"Lenox - White Plains Rd","stop_name":"E 180 St","daytime_routes":"2, 5","color":"#D82233","color2":"#009952"},"geometry":{"type":"Point","coordinates":[-73.873488,40.841894]}},
{"type":"Feature","properties":{"line":"Lenox - White Plains Rd","stop_name":"West Farms Sq-E Tremont Av","daytime_routes":"2, 5","color":"#D82233","color2":"#009952"},"geometry":{"type":"Point","coordinates":[-73.880049,40.840295]}},
{"type":"Feature","properties":{"line":"Lenox - White Plains Rd","stop_name":"174 St","daytime_routes":"2, 5","color":"#D82233","color2":"#009952"},"geometry":{"type":"Point","coordinates":[-73.887734,40.837288]}},
{"type":"Feature","properties":{"line":"Lenox - White Plains Rd","stop_name":"Freeman St","daytime_routes":"2, 5","color":"#D82233","color2":"#009952"},"geometry":{"type":"Point","coordinates":[-73.891865,40.829993]}},
{"type":"Feature","properties":{"line":"Lenox - White Plains Rd","stop_name":"Simpson St","daytime_routes":"2, 5","color":"#D82233","color2":"#009952"},"geometry":{"type":"Point","coordinates":[-73.893064,40.824073]}},
{"type":"Feature","properties":{"line":"Lenox - White Plains Rd","stop_name":"Intervale Av","daytime_routes":"2, 5","color":"#D82233","color2":"#009952"},"geometry":{"type":"Point","coordinates":[-73.896736,40.822181]}},
{"type":"Feature","properties":{"line":"Lenox - White Plains Rd","stop_name":"Prospect Av","daytime_routes":"2, 5","color":"#D82233","color2":"#009952"},"geometry":{"type":"Point","coordinates":[-73.90177,40.819585]}},
{"type":"Feature","properties":{"line":"Lenox - White Plains Rd","stop_name":"Jackson Av","daytime_routes":"2, 5","color":"#D82233","color2":"#009952"},"geometry":{"type":"Point","coordinates":[-73.907807,40.81649]}},
{"type":"Feature","properties":{"line":"Lenox - White Plains Rd","stop_name":"3 Av-149 St","daytime_routes":"2, 5","color":"#D82233","color2":"#009952"},"geometry":{"type":"Point","coordinates":[-73.917757,40.816109]}},
{"type":"Feature","properties":{"line":"Lenox - White Plains Rd","stop_name":"149 St-Hostos","daytime_routes":"2, 5","color":"#D82233","color2":"#009952"},"geometry":{"type":"Point","coordinates":[-73.926718,40.81841]}},
{"type":"Feature","properties":{"line":"Dyre Av","stop_name":"Eastchester-Dyre Av","daytime_routes":"5","color":"#009952"},"geometry":{"type":"Point","coordinates":[-73.830834,40.8883]}},
{"type":"Feature","properties":{"line":"Dyre Av","stop_name":"Baychester Av","daytime_routes":"5","color":"#009952"},"geometry":{"type":"Point","coordinates":[-73.838591,40.878663]}},
{"type":"Feature","properties":{"line":"Dyre Av","stop_name":"Gun Hill Rd","daytime_routes":"5","color":"#009952"},"geometry":{"type":"Point","coordinates":[-73.846384,40.869526]}},
{"type":"Feature","properties":{"line":"Dyre Av","stop_name":"Pelham Pkwy","daytime_routes":"5","color":"#009952"},"geometry":{"type":"Point","coordinates":[-73.855359,40.858985]}},
{"type":"Feature","properties":{"line":"Dyre Av","stop_name":"Morris Park","daytime_routes":"5","color":"#009952"},"geometry":{"type":"Point","coordinates":[-73.860495,40.854364]}}
]
}
